[{"OBJECT_NAME":"ONEWEB-0293","OBJECT_ID":"2021-075H","EPOCH":"2026-03-09T22:33:38.597184","MEAN_MOTION":13.1764919,"ECCENTRICITY":0.00019989,"INCLINATION":87.915,"RA_OF_ASC_NODE":25.574,"ARG_OF_PERICENTER":81.1011,"MEAN_ANOMALY":279.0347,"EPHEMERIS_TYPE":0,"CLASSIFICATION_TYPE":"U","NORAD_CAT_ID":49082,"ELEMENT_SET_NO":999,"REV_AT_EPOCH":22056,"BSTAR":0.00015336144,"MEAN_MOTION_DOT":7.2e-7,"MEAN_MOTION_DDOT":0},{"OBJECT_NAME":"CZ-4B DEB","OBJECT_ID":"1999-057F","EPOCH":"2026-03-09T17:24:56.094336","MEAN_MOTION":13.47376233,"ECCENTRICITY":0.04890314,"INCLINATION":99.3995,"RA_OF_ASC_NODE":328.6131,"ARG_OF_PERICENTER":39.3689,"MEAN_ANOMALY":22.736,"EPHEMERIS_TYPE":0,"CLASSIFICATION_TYPE":"U","NORAD_CAT_ID":26119,"ELEMENT_SET_NO":999,"REV_AT_EPOCH":27238,"BSTAR":0.00099713826,"MEAN_MOTION_DOT":1.23e-5,"MEAN_MOTION_DDOT":0}]
